0 COSMOS 2251 DEB
1 35584U 93036AMB 13284.11337912  .00005342  00000-0  28862-2 0  6169
2 35584 074.1027 321.1765 0174411 339.1403 050.4382 14.05382952224564
0 COSMOS 2251 DEB
1 35584U 93036AMB 13292.46594257  .00007454  00000-0  40126-2 0  6188
2 35584 074.1005 306.6416 0174642 322.6112 190.4338 14.05475227225746
0 COSMOS 2251 DEB
1 35584U 93036AMB 13294.46005457  .00009035  00000-0  48469-2 0  6195
2 35584 074.1019 303.1707 0175941 318.4633 200.3854 14.05502848226026
0 COSMOS 2251 DEB
1 35584U 93036AMB 13295.99970045  .00008631  00000-0  46318-2 0  6202
2 35584 074.1032 300.4904 0175531 315.5621 070.6103 14.05527326226236
